NORAD_CAT_ID,OBJECT_NAME,OBJECT_TYPE,EPOCH,MEAN_MOTION,ECCENTRICITY,INCLINATION,RA_OF_ASC_NODE,ARG_OF_PERICENTER,MEAN_ANOMALY,BSTAR,MEAN_MOTION_DOT,MEAN_MOTION_DDOT,TLE_LINE0,TLE_LINE1,TLE_LINE2,SEMIMAJOR_AXIS,PERIOD,APOGEE,PERIGEE,DECAYED
53287.0,STARLINK-4107,PAYLOAD,2022-11-02 18:00:02,15.08846222,0.0001688,53.2174,274.0951,42.6628,80.1428,-0.0018857,-0.00030179,0.0,0 STARLINK-4107,1 53287U 22086AX  22306.75002315 -.00030179  00000-0 -18857-2 0  9992,2 53287  53.2174 274.0951 0001688  42.6628  80.1428 15.08846222  1303,6917.861,95.437,540.894,538.559,0.0
53287.0,STARLINK-4107,PAYLOAD,2022-11-03 04:35:13,15.08835959,0.0001587,53.2181,272.1102,48.0338,312.079,3.0015e-05,1.9e-06,0.0,0 STARLINK-4107,1 53287U 22086AX  22307.19112421  .00000190  00000-0  30015-4 0  9991,2 53287  53.2181 272.1102 0001587  48.0338 312.0790 15.08835959 16472,6917.893,95.438,540.856,538.66,0.0
53287.0,STARLINK-4107,PAYLOAD,2022-11-03 07:45:59,15.08829307,0.000151,53.2184,271.5139,57.0215,303.0922,5.014100000000001e-05,5.1e-06,0.0,0 STARLINK-4107,1 53287U 22086AX  22307.32360735  .00000510  00000-0  50141-4 0  9997,2 53287  53.2184 271.5139 0001510  57.0215 303.0922 15.08829307 16655,6917.913000000001,95.438,540.823,538.7330000000002,0.0
53287.0,STARLINK-4107,PAYLOAD,2022-11-04 06:01:22,15.08848966,0.0001438,53.2174,267.353,41.2163,318.8937,2.4878e-05,1.08e-06,0.0,0 STARLINK-4107,1 53287U 22086AX  22308.25095459  .00000108  00000-0  24878-4 0  9999,2 53287  53.2174 267.3530 0001438  41.2163 318.8937 15.08848966 16638,6917.853,95.437,540.7130000000002,538.7230000000002,0.0
53287.0,STARLINK-4107,PAYLOAD,2022-11-04 20:19:51,15.08838778,0.0001591,53.2172,264.6777,36.7058,323.4043,-2.5469e-05,-6.93e-06,0.0,0 STARLINK-4107,1 53287U 22086AX  22308.84712149 -.00000693  00000-0 -25469-4 0  9994,2 53287  53.2172 264.6777 0001591  36.7058 323.4043 15.08838778 16721,6917.884,95.438,540.85,538.648,0.0
53287.0,STARLINK-4107,PAYLOAD,2022-11-05 05:52:10,15.08829851,0.0001656,53.2182,262.8933,45.3773,314.7354,-3.9847e-05,-9.22e-06,0.0,0 STARLINK-4107,1 53287U 22086AX  22309.24456803 -.00000922  00000-0 -39847-4 0  9991,2 53287  53.2182 262.8933 0001656  45.3773 314.7354 15.08829851 16942,6917.911,95.438,540.922,538.631,0.0
53287.0,STARLINK-4107,PAYLOAD,2022-11-06 04:07:36,15.0881831,0.0001682,53.2188,258.7309,50.0318,310.0822,-0.00014798,-2.641e-05,0.0,0 STARLINK-4107,1 53287U 22086AX  22310.17195032 -.00002641  00000-0 -14798-3 0  9996,2 53287  53.2188 258.7309 0001682  50.0318 310.0822 15.08818310 16921,6917.946999999999,95.439,540.975,538.648,0.0
53287.0,STARLINK-4107,PAYLOAD,2022-11-06 07:18:22,15.08819476,0.0001868,53.2192,258.1347,46.867,313.2478,-0.00012251,-2.236e-05,0.0,0 STARLINK-4107,1 53287U 22086AX  22310.30443094 -.00002236  00000-0 -12251-3 0  9997,2 53287  53.2192 258.1347 0001868  46.8670 313.2478 15.08819476 17109,6917.943,95.439,541.1,538.516,0.0
53287.0,STARLINK-4107,PAYLOAD,2022-11-06 13:39:54,15.08828267,0.0001716,53.2186,256.946,45.3828,314.7304,-3.6984e-05,-8.76e-06,0.0,0 STARLINK-4107,1 53287U 22086AX  22310.56938468 -.00000876  00000-0 -36984-4 0  9997,2 53287  53.2186 256.9460 0001716  45.3828 314.7304 15.08828267 16982,6917.916,95.438,540.9680000000002,538.594,0.0
53287.0,STARLINK-4107,PAYLOAD,2022-11-07 03:58:22,15.08839769,0.0001624,53.2185,254.2648,61.9514,298.1642,2.7679e-05,1.53e-06,0.0,0 STARLINK-4107,1 53287U 22086AX  22311.16553855  .00000153  00000-0  27679-4 0  9994,2 53287  53.2185 254.2648 0001624  61.9514 298.1642 15.08839769 17074,6917.880999999999,95.438,540.87,538.623,0.0
53287.0,STARLINK-4107,PAYLOAD,2022-11-07 13:30:42,15.08825771,0.0001909,53.2182,252.4843,48.5569,311.5587,5.1826e-05,5.36e-06,0.0,0 STARLINK-4107,1 53287U 22086AX  22311.56298902  .00000536  00000-0  51826-4 0  9993,2 53287  53.2182 252.4843 0001909  48.5569 311.5587 15.08825771 17138,6917.924,95.438,541.11,538.4680000000002,0.0
53287.0,STARLINK-4107,PAYLOAD,2022-11-08 05:24:32,15.08847818,0.0001807,53.2189,249.511,54.3837,305.7323,0.00027003,4.013e-05,0.0,0 STARLINK-4107,1 53287U 22086AX  22312.22537216  .00004013  00000-0  27003-3 0  9994,2 53287  53.2189 249.5110 0001807  54.3837 305.7323 15.08847818 17239,6917.856,95.437,540.972,538.471,0.0
53287.0,STARLINK-4107,PAYLOAD,2022-11-09 02:04:31,15.08873854,0.0001658,53.2212,245.644,82.0945,278.0236,0.00010068,1.316e-05,0.0,0 STARLINK-4107,1 53287U 22086AX  22313.08647152  .00001316  00000-0  10068-3 0  9996,2 53287  53.2212 245.6440 0001658  82.0945 278.0236 15.08873854 17369,6917.776999999999,95.435,540.789,538.495,0.0
53287.0,STARLINK-4107,PAYLOAD,2022-11-09 13:12:14,15.08846724,0.0001844,53.2178,243.5651,49.7479,310.3675,6.5521e-05,7.55e-06,0.0,0 STARLINK-4107,1 53287U 22086AX  22313.55016482  .00000755  00000-0  65521-4 0  9995,2 53287  53.2178 243.5651 0001844  49.7479 310.3675 15.08846724 17598,6917.86,95.437,541.0,538.4490000000002,0.0
53287.0,STARLINK-4107,PAYLOAD,2022-11-09 19:33:47,15.08847537,0.0001703,53.2184,242.3739,64.9121,295.2047,-8.2942e-05,-1.608e-05,0.0,0 STARLINK-4107,1 53287U 22086AX  22313.81512779 -.00001608  00000-0 -82942-4 0  9990,2 53287  53.2184 242.3739 0001703  64.9121 295.2047 15.08847537 17470,6917.857,95.437,540.9,538.544,0.0
53287.0,STARLINK-4107,PAYLOAD,2022-11-10 01:55:21,15.08825765,0.0001611,53.2187,241.1841,59.1424,300.9727,-0.00026404,-4.486e-05,0.0,0 STARLINK-4107,1 53287U 22086AX  22314.08011092 -.00004486  00000-0 -26404-3 0  9999,2 53287  53.2187 241.1841 0001611  59.1424 300.9727 15.08825765 17517,6917.924,95.438,540.903,538.674,0.0
53287.0,STARLINK-4107,PAYLOAD,2022-11-10 05:06:07,15.08832829,0.0001654,53.2184,240.5912,48.3119,311.8014,-0.00030056,-5.067e-05,0.0,0 STARLINK-4107,1 53287U 22086AX  22314.21258584 -.00005067  00000-0 -30056-3 0  9997,2 53287  53.2184 240.5912 0001654  48.3119 311.8014 15.08832829 17692,6917.901999999999,95.438,540.9119999999998,538.623,0.0
53287.0,STARLINK-4107,PAYLOAD,2022-11-11 04:56:54,15.08835847,0.0001585,53.2183,236.1307,51.6609,308.4525,-0.0002841,-4.806e-05,0.0,0 STARLINK-4107,1 53287U 22086AX  22315.20618377 -.00004806  00000-0 -28410-3 0  9998,2 53287  53.2183 236.1307 0001585  51.6609 308.4525 15.08835847 17685,6917.893,95.438,540.855,538.6619999999998,0.0
53287.0,STARLINK-4107,PAYLOAD,2022-11-11 11:18:26,15.08838528,0.0001649,53.2187,234.9418,51.6184,308.4956,-0.00022746,-3.906e-05,0.0,0 STARLINK-4107,1 53287U 22086AX  22315.47114110 -.00003906  00000-0 -22746-3 0  9999,2 53287  53.2187 234.9418 0001649  51.6184 308.4956 15.08838528 17886,6917.885,95.438,540.891,538.609,0.0
53287.0,STARLINK-4107,PAYLOAD,2022-11-11 19:15:22,15.08821579,0.0001608,53.218,233.455,44.232,315.8801,5.2163e-05,5.42e-06,0.0,0 STARLINK-4107,1 53287U 22086AX  22315.80234460  .00000542  00000-0  52163-4 0  9995,2 53287  53.2180 233.4550 0001608  44.2320 315.8801 15.08821579 17930,6917.937,95.439,540.914,538.689,0.0
53287.0,STARLINK-4107,PAYLOAD,2022-11-12 04:47:41,15.08824977,0.0001638,53.2182,231.6706,43.6655,316.4467,5.0062e-05,5.09e-06,0.0,0 STARLINK-4107,1 53287U 22086AX  22316.19978762  .00000509  00000-0  50062-4 0  9997,2 53287  53.2182 231.6706 0001638  43.6655 316.4467 15.08824977 17998,6917.926,95.439,540.924,538.658,0.0
53287.0,STARLINK-4107,PAYLOAD,2022-11-12 19:06:08,15.08837723,0.0001720999999999,53.2182,228.9944,44.4208,315.6922,0.00021782,3.18e-05,0.0,0 STARLINK-4107,1 53287U 22086AX  22316.79593617  .00003180  00000-0  21782-3 0  9999,2 53287  53.2182 228.9944 0001721  44.4208 315.6922 15.08837723 17920,6917.887,95.438,540.943,538.562,0.0
53287.0,STARLINK-4107,PAYLOAD,2022-11-13 03:03:04,15.08836908,0.0001839,53.2183,227.5072,47.8186,312.2962,0.00018459,2.651e-05,0.0,0 STARLINK-4107,1 53287U 22086AX  22317.12713785  .00002651  00000-0  18459-3 0  9996,2 53287  53.2183 227.5072 0001839  47.8186 312.2962 15.08836908 18135,6917.89,95.438,541.0269999999998,538.4830000000002,0.0
53287.0,STARLINK-4107,PAYLOAD,2022-11-13 18:56:57,15.08829736,0.0001944,53.2179,224.533,51.0413,309.0752,1.051e-05,-1.21e-06,0.0,0 STARLINK-4107,1 53287U 22086AX  22317.78955210 -.00000121  00000-0  10510-4 0  9991,2 53287  53.2179 224.5330 0001944  51.0413 309.0752 15.08829736 18076,6917.9119999999975,95.438,541.122,538.432,0.0
53287.0,STARLINK-4107,PAYLOAD,2022-11-14 02:53:53,15.0881943,0.0001808,53.2179,223.0476,47.354,312.7604,-5.630600000000001e-05,-1.184e-05,0.0,0 STARLINK-4107,1 53287U 22086AX  22318.12076285 -.00001184  00000-0 -56306-4 0  9990,2 53287  53.2179 223.0476 0001808  47.3540 312.7604 15.08819430 18122,6917.943,95.439,541.059,538.557,0.0
53287.0,STARLINK-4107,PAYLOAD,2022-11-14 10:50:49,15.08826397,0.0001911,53.2188,221.5608,48.63,311.4856,-6.0805e-05,-1.255e-05,0.0,0 STARLINK-4107,1 53287U 22086AX  22318.45196253 -.00001255  00000-0 -60805-4 0  9992,2 53287  53.2188 221.5608 0001911  48.6300 311.4856 15.08826397 18333,6917.922,95.438,541.109,538.465,0.0
53287.0,STARLINK-4107,PAYLOAD,2022-11-14 17:12:21,15.08834794,0.0001734,53.2177,220.3709,49.3001,310.8142,-0.00011208,-2.071e-05,0.0,0 STARLINK-4107,1 53287U 22086AX  22318.71691894 -.00002071  00000-0 -11208-3 0  9991,2 53287  53.2177 220.3709 0001734  49.3001 310.8142 15.08834794 18374,6917.896,95.438,540.961,538.562,0.0
53287.0,STARLINK-4107,PAYLOAD,2022-11-14 21:58:30,15.08846101,0.0001806,53.2183,219.4792,50.6427,309.4725,-0.00011188,-2.069e-05,0.0,0 STARLINK-4107,1 53287U 22086AX  22318.91563267 -.00002069  00000-0 -11188-3 0  9999,2 53287  53.2183 219.4792 0001806  50.6427 309.4725 15.08846101 18241,6917.861999999999,95.437,540.976,538.477,0.0
53287.0,STARLINK-4107,PAYLOAD,2022-11-15 01:09:18,15.08734658,0.0002568,53.2183,218.8851,58.5121,301.6121,0.0013383,0.00021014,0.0,0 STARLINK-4107,1 53287U 22086AX  22319.04813136  .00021014  00000-0  13383-2 0  9994,2 53287  53.2183 218.8851 0002568  58.5121 301.6121 15.08734658 18263,6918.2019999999975,95.444,541.844,538.2909999999998,0.0
